LEMUR-1                 
1 40044U 14033AL  22323.49406105  .00001028  00000+0  15513-3 0  9992
2 40044  97.6572 143.7233 0058427  18.2012 342.1271 14.75223910452738
LEMUR-2-XIAOQING        
1 41871U 16062C   22323.04005351  .00038872  00000+0  76347-3 0  9993
2 41871  51.6329 316.4074 0005469  92.3063 267.8551 15.46907175333795
LEMUR-2-SOKOLSKY        
1 41872U 16062D   22323.02025096  .00043582  00000+0  86461-3 0  9992
2 41872  51.6772 327.0782 0003339  33.8073 326.3128 15.46573352333750
LEMUR-2-ANUBHAVTHAKUR   
1 41873U 16062E   22323.42493977  .00010077  00000+0  35046-3 0  9990
2 41873  51.6816  17.9323 0007350 102.7462 257.4341 15.30289974333041
LEMUR-2-WINGO           
1 41874U 16062F   22323.46954179  .00033134  00000+0  69422-3 0  9995
2 41874  51.6502 326.1231 0011578  60.6877 299.5518 15.45045413333717
LEMUR-2-JOBANPUTRA      
1 41991U 17008AV  22323.13078948  .00019744  00000+0  52521-3 0  9994
2 41991  97.2416  21.9426 0006693  52.8214 307.3642 15.38237546319906
LEMUR-2-SPIRE-MINIONS   
1 41992U 17008AW  22323.41250150  .00035567  00000+0  78673-3 0  9990
2 41992  97.2499  27.5534 0004838  38.7850 321.3745 15.43724773320246
LEMUR-2-SATCHMO         
1 41993U 17008AX  22323.42953402  .00019766  00000+0  55857-3 0  9994
2 41993  97.2417  22.5257 0006666  52.8401 307.3451 15.36358220319961
LEMUR-2-SMITA-SHARAD    
1 41994U 17008AY  22323.14046112  .00035551  00000+0  78807-3 0  9995
2 41994  97.2488  27.0352 0004921  42.1109 318.0517 15.43659574320198
LEMUR-2-RDEATON         
1 41995U 17008AZ  22323.15353278  .00015458  00000+0  44570-3 0  9995
2 41995  97.2466  22.4893 0007717  62.4479 297.7548 15.35772631320609
LEMUR-2-TACHIKOMA       
1 41996U 17008BA  22323.40238151  .00027213  00000+0  63007-3 0  9994
2 41996  97.2548  27.5020 0006268  56.3388 303.8457 15.42404216320102
LEMUR-2-NOGUECORREIG    
1 41997U 17008BB  22323.16798059  .00035376  00000+0  77990-3 0  9991
2 41997  97.2515  27.8499 0005915  52.2894 307.8890 15.43819024320210
LEMUR-2-MIA-GRACE       
1 41998U 17008BC  22323.16620770  .00016561  00000+0  47796-3 0  9992
2 41998  97.2432  22.0361 0007559  64.6085 295.5941 15.35729013319823
LEMUR-2-ANGELA          
1 42752U 17019B   22323.25057125  .00043740  00000+0  72095-3 0  9990
2 42752  51.6308 198.9991 0005805 222.4962 137.5579 15.51844961305128
LEMUR-2-JENNYBARNA      
1 42753U 17019C   22323.25934559  .00266883  00000+0  13188-2 0  9998
2 42753  51.6191 157.3959 0008489 234.9289 125.0917 15.80719368305631
LEMUR-2-ROBMOORE        
1 42754U 17019D   22323.01501421  .00035105  00000+0  63107-3 0  9999
2 42754  51.6310 202.6272 0004462 228.1009 131.9599 15.49505439305032
LEMUR-2-SPIROVISION     
1 42755U 17019E   22323.54423351  .00198354  00000+0  11434-2 0  9994
2 42755  51.6254 157.6251 0008319 230.4560 158.7918 15.77509720305578
LEMUR-2-SHAINAJOHL      
1 42771U 17036G   22323.10228988  .00019598  00000+0  56419-3 0  9997
2 42771  97.1843   0.4743 0011947 118.2640 241.9812 15.35728040300675
LEMUR-2-XUENITERENCE    
1 42772U 17036H   22323.08502860  .00027210  00000+0  71817-3 0  9998
2 42772  97.1731   0.7676 0011002 112.7640 247.4770 15.38375194300733
LEMUR-2-LUCYBRYCE       
1 42773U 17036J   22323.34694508  .00021973  00000+0  68490-3 0  9992
2 42773  97.1877   0.5746 0012047 119.2416 241.0032 15.33189970300656
LEMUR-2-KUNGFOO         
1 42774U 17036K   22322.67973104  .00018510  00000+0  52673-3 0  9999
2 42774  97.1833   0.5569 0011291 116.6295 243.6107 15.36109499300638
LEMUR-2-LYNSEY-SYMO     
1 42779U 17036Q   22323.10683955  .00024588  00000+0  61709-3 0  9997
2 42779  97.1859   6.0637 0009679 114.7328 245.4927 15.39954464300982
LEMUR-2-LISASAURUS      
1 42780U 17036R   22323.02977765  .00026927  00000+0  74792-3 0  9990
2 42780  97.1842   2.0954 0009988 122.8102 237.4106 15.36806203300734
LEMUR-2-SAM-AMELIA      
1 42781U 17036S   22322.89242143  .00009734  00000+0  31544-3 0  9995
2 42781  97.1875   2.2922 0010958 124.2606 235.9676 15.32141059300701
LEMUR-2-MCPEAKE         
1 42782U 17036T   22322.63313132  .00017663  00000+0  49479-3 0  9991
2 42782  97.1846   3.4900 0009989 118.4888 241.7363 15.36624370300791
LEMUR-2-GREENBERG       
1 42837U 17042N   22323.31439671  .00003172  00000+0  29852-3 0  9995
2 42837  97.4079 172.3513 0011839 192.1754 167.9183 14.94482685291395
LEMUR-2-ANDIS           
1 42838U 17042P   22323.30898031  .00003078  00000+0  28956-3 0  9993
2 42838  97.4063 172.2714 0011902 191.7650 168.3295 14.94519436291396
LEMUR-2-MONSON          
1 42839U 17042Q   22323.35163264  .00003207  00000+0  30330-3 0  9995
2 42839  97.4083 172.0503 0011582 190.9255 169.1716 14.94276206291379
LEMUR-2-FURIAUS         
1 42840U 17042R   22323.29872564  .00003179  00000+0  30351-3 0  9991
2 42840  97.4116 172.3516 0011897 193.3326 166.7582 14.93904003291365
LEMUR-2-PETERG          
1 42841U 17042S   22323.30100516  .00003060  00000+0  28994-3 0  9994
2 42841  97.4139 173.5424 0011494 188.5936 171.5090 14.94234421291435
LEMUR-2-DEMBITZ         
1 42842U 17042T   22323.38560506  .00003049  00000+0  28562-3 0  9990
2 42842  97.4104 173.5056 0011678 188.4654 171.6372 14.94694738291456
LEMUR-2-ZACHARY         
1 42845U 17042W   22323.31444766  .00004110  00000+0  37499-3 0  9994
2 42845  97.3988 172.5708 0011670 189.4977 170.6026 14.95553995291491
LEMUR-2-MCCAFFERTY      
1 43123U 18004N   22323.49055959  .00038668  00000+0  84129-3 0  9991
2 43123  97.3654  43.8043 0006090 143.9041 216.2619 15.44192023270421
LEMUR-2-PETERWEBSTER    
1 43124U 18004P   22323.51194064  .00031082  00000+0  69458-3 0  9997
2 43124  97.3652  43.3438 0006391 147.1013 213.0634 15.43439670270391
LEMUR-2-BROWNCOW        
1 43125U 18004Q   22323.04487457  .00039534  00000+0  79100-3 0  9992
2 43125  97.3716  45.1419 0005973 143.7828 216.3827 15.46651639270443
LEMUR-2-DAVEWILSON      
1 43126U 18004R   22323.38284563  .00043793  00000+0  85365-3 0  9995
2 43126  97.3691  45.3456 0005524 144.1434 216.0188 15.47390733270497
LEMUR-2-MARSHALL        
1 43165U 18010C   22322.86093984  .00020739  00000+0  62101-3 0  9990
2 43165  82.9105 279.1144 0026044 135.1850 225.1503 15.34047599268116
LEMUR-2-TALLHAMN-ATC    
1 43167U 18010E   22323.36485586  .00015928  00000+0  54372-3 0  9996
2 43167  82.9136 285.5901 0020503 156.1289 204.0909 15.29991716267766
LEMUR-2-JIN-LUEN        
1 43182U 18014C   22323.19170500  .00003984  00000+0  32135-3 0  9997
2 43182  97.6278 224.0747 0017445 141.6360 218.6108 15.00328303262086
LEMUR-2-URAMCHANSOL     
1 43183U 18014D   22323.19888894  .00004533  00000+0  36268-3 0  9992
2 43183  97.6305 224.3204 0018182 125.4891 234.8033 15.00555451262091
LEMUR-2-KADI            
1 43184U 18014E   22323.21541600  .00005175  00000+0  42065-3 0  9992
2 43184  97.6360 224.1346 0015299 125.4507 234.8147 14.99925591262086
LEMUR-2-THENICKMOLO     
1 43185U 18014F   22323.16297268  .00004622  00000+0  37327-3 0  9996
2 43185  97.6431 224.3936 0010978 127.3319 232.8906 15.00275780262086
LEMUR-2-VU              
1 43558U 18046E   22322.90174380  .00091565  00000+0  97685-3 0  9990
2 43558  51.6313 117.9018 0009153 252.3974 107.6021 15.63133145243540
LEMUR-2-ALEXANDER       
1 43559U 18046F   22323.12529102  .00182864  00000+0  14316-2 0  9994
2 43559  51.6348 111.9410 0008862 278.5204  81.4789 15.70449095243420
LEMUR-2-YUASA           
1 43560U 18046G   22323.44219977  .00154111  00000+0  13419-2 0  9994
2 43560  51.6360 114.0425 0008920 280.5940  79.4051 15.67967768243642
LEMUR-2-TOMHENDERSON    
1 43561U 18046H   22322.82514642  .00051370  00000+0  64848-3 0  9999
2 43561  51.6370 124.1281 0009372 250.9894 109.0083 15.59001190243012
LEMUR-2-ZUPANSKI        
1 43695U 18088F   22323.12171860  .00019528  00000+0  59475-3 0  9997
2 43695  85.0298 209.8164 0008832 291.9042  68.1266 15.33823570223563
LEMUR-2-CHANUSIAK       
1 43697U 18088H   22323.41055742  .00023751  00000+0  67847-3 0  9996
2 43697  85.0361 209.5648 0007279 253.5659 106.4791 15.35851805223745
LEMUR-2-ORZULAK         
1 43731U 18096N   22323.17183875  .00115412  00000+0  13395-2 0  9990
2 43731  97.3570  51.3432 0011313 214.7820 145.2699 15.61318310222216
LEMUR-2-KOBYSZCZE       
1 43732U 18096P   22323.20071987  .00109258  00000+0  12553-2 0  9991
2 43732  97.3583  51.9233 0011003 213.4525 146.6039 15.61606896222245
LEMUR-2-DULY            
1 43745U 18096AC  22322.82289389  .00072902  00000+0  99153-3 0  9996
2 43745  97.3560  50.7638 0011346 210.6307 149.4287 15.57267511222155
LEMUR-2-VLADIMIR        
1 43746U 18096AD  22323.49417250  .00157620  00000+0  13559-2 0  9997
2 43746  97.3548  53.1855 0010952 233.9896 126.0351 15.68759609222398
LEMUR-2-CHRISTINAHOLT   
1 43882U 18111G   22323.21661977  .00005577  00000+0  44264-3 0  9994
2 43882  97.6615 228.5216 0010842 105.7990 254.4430 15.00856168212965
LEMUR-2-TINYKEV         
1 43883U 18111H   22323.45621590  .00005274  00000+0  41319-3 0  9990
2 43883  97.6485 228.9743 0015874 125.3831 234.8878 15.01321627211013
LEMUR-2-REMY-COLTON     
1 43884U 18111J   22323.53889415  .00004908  00000+0  38631-3 0  9998
2 43884  97.6599 229.6228 0002233 141.0849 219.0536 15.01273559211055
LEMUR-2-GUSTAVO         
1 43885U 18111K   22323.20657303  .00005194  00000+0  41198-3 0  9992
2 43885  97.6584 228.8864 0015934 120.6966 239.5830 15.00855634212977
LEMUR-2-ZO              
1 43886U 18111L   22323.19009226  .00003948  00000+0  31364-3 0  9995
2 43886  97.6557 229.1939 0018677 153.5303 206.6879 15.00908080212985
LEMUR-2-NATALIEMURRAY   
1 43887U 18111M   22323.20663483  .00005387  00000+0  42496-3 0  9996
2 43887  97.6604 229.5248 0011692  95.4736 264.7822 15.01093145213005
LEMUR-2-SARAHBETTYBOO   
1 43888U 18111N   22323.16119270  .00006079  00000+0  47680-3 0  9991
2 43888  97.6827 229.8159 0010987 178.7059 181.4196 15.01271330213009
LEMUR-2-DAISY-HARPER    
1 43889U 18111P   22323.55701059  .00005671  00000+0  44496-3 0  9996
2 43889  97.6781 230.3911 0009350 179.9431 180.1796 15.01301838213066
